[{"OBJECT_NAME":"CARTOSAT-2F","OBJECT_ID":"2018-004A","EPOCH":"2026-03-09T22:50:21.052320","MEAN_MOTION":15.19266774,"ECCENTRICITY":8.279e-5,"INCLINATION":97.4159,"RA_OF_ASC_NODE":130.1064,"ARG_OF_PERICENTER":205.5127,"MEAN_ANOMALY":154.6067,"EPHEMERIS_TYPE":0,"CLASSIFICATION_TYPE":"U","NORAD_CAT_ID":43111,"ELEMENT_SET_NO":999,"REV_AT_EPOCH":45226,"BSTAR":0.00021023893,"MEAN_MOTION_DOT":4.366e-5,"MEAN_MOTION_DDOT":0},{"OBJECT_NAME":"IRIDE FM5","OBJECT_ID":"2025-276AK","EPOCH":"2026-03-09T22:47:21.359328","MEAN_MOTION":15.1881147,"ECCENTRICITY":0.00041727,"INCLINATION":97.4263,"RA_OF_ASC_NODE":144.1872,"ARG_OF_PERICENTER":15.4541,"MEAN_ANOMALY":344.682,"EPHEMERIS_TYPE":0,"CLASSIFICATION_TYPE":"U","NORAD_CAT_ID":66699,"ELEMENT_SET_NO":999,"REV_AT_EPOCH":1535,"BSTAR":0.00040369446,"MEAN_MOTION_DOT":8.339e-5,"MEAN_MOTION_DDOT":0}]
